name,address,country,zip,place,subdivision
RehaClinic Baden,Bäderstrasse 16,CH,5401,Baden,AG
RehaClinic Baden-Dättwil,Im Ergel 1,CH,5404,Baden,AG
Privatklinik Oberwaid,Rorschacher Strasse 311,CH,9016,St. Gallen,SG
REHA-Abteilung,Seestrasse 101,CH,8267,Berlingen,TG
Goldach,Klosterstrasse 19,CH,9403,Goldach,SG
Clinique Les Hauts d'Anières,Chemin des Courbes 9,CH,1247,Anières,GE
Seeklinik Brunnen AG,Gersauerstrasse 8,CH,6440,Brunnen,SZ
Montreux,Avenue de Belmont 25,CH,1820,Montreux,VD
Samaritain,Boulevard Paderewski 3,CH,1800,Vevey,VD
Providence,Avenue de la Prairie 3,CH,1800,Vevey,VD
Mottex,Chemin de Mottex 25,CH,1807,Blonay,VD
Monthey,Route de Morgins,CH,1870,Monthey,VS
Aigle,Chemin du Grand-Chêne 1,CH,1860,Aigle,VD
Hôpital de Nyon,Chemin Monastier 10,CH,1260,Nyon,VD
Hôpital de Rolle,Route de l'Hôpital 26,CH,1180,Rolle,VD
Institution de Lavigny,route du Vignoble 60,CH,1175,Lavigny,VD
Payerne,Avenue de la Colline 3,CH,1530,Payerne,VD
Estavayer-le-Lac,Rue de la Rochette,CH,1470,Estavayer-le-Lac,FR
Spital Frutigen,Adelbodenstrasse 27,CH,3714,Frutigen,BE
Spital Interlaken,Weissenaustrasse 27,CH,3800,Unterseen,BE
Klinik Eden,Panoramastrasse 20,CH,3854,Oberried am Brienzersee,BE
Hôpital de St-Imier,Les Fontenayes 17,CH,2610,St-Imier,BE
Hôpital de Moutier,Rue Beausite 49,CH,2740,Moutier,BE
Clinique de Bellelay,L'Abbaye 2,CH,2713,Bellelay,BE
Unité de St-Imier,Rue du Midi 9,CH,2610,St-Imier,BE
"Clinque de jour, Bévilard",Champ de Chin 18,CH,2735,Bévilard,BE
Unité du Fuet,,CH,2712,Le Fuet,BE
Unité de Moutier (UHPA),Beausite 47,CH,2740,Moutier,BE
Services ambulatoires Bienne,Pont-du-Moulin 14,CH,2502,Biel/Bienne,BE
Clinique de jour Bienne,Lischenweg 2,CH,2503,Biel/Bienne,BE
"Adullam Spital, Basel",Mittlere Strasse 15,CH,4056,Basel,BS
"Adullam Spital, Riehen",Schützengasse 60,CH,4125,Riehen,BS
SMN-Clinique Générale-Ste-Anne,Rue Hans-Geiler 6,CH,1700,Fribourg,FR
Flury Stiftung Spital Schiers,,CH,7220,Schiers,GR
Center da Sanadad Savognin,Stradung 52,CH,7460,Savognin,GR
Kantonsspital Frauenfeld KSF,"Pfaffenholzstrasse 4, Postfach",CH,8501,Frauenfeld,TG
Kantonsspital Münsterlingen KSM,Spitalcampus 1,CH,8596,Münsterlingen,TG
Kantonsspital Graubünden,Loestrasse 170,CH,7000,Chur,GR
Centro Sanitario Bregaglia Reparto Acuto,Flin,CH,7606,Promontogno,GR
Klinik Bolligenstrasse Bern,Bolligenstrasse 111,CH,3000,Bern 60,BE
Klinik Murtenstrasse Bern,Murtenstrasse 21,CH,3008,Bern,BE
Klinik Neuhaus Ittigen,Untere Zollgasse 99,CH,3063,Ittigen,BE
Therapiestation Alpenstrasse Bern,Alpenstrasse 25,CH,3006,Bern,BE
"Ambulatorium, Tagesklinik und Station Olvido Spiez",General-Guisanstrasse 2,CH,3700,Spiez,BE
Ambulatorium Moserstrasse Bern,Moserstrasse 24,CH,3014,Bern,BE
Ambulatorium Effingerstrasse Bern,Effingerstrasse 12,CH,3011,Bern,BE
Ambulatorium Zieglerstrasse Bern,Zieglerstrasse 7,CH,3007,Bern,BE
Wohncoaching Kasthoferstrasse Bern,Kasthoferstrasse 63,CH,3006,Bern,BE
Ambulatorium und Tagesklinik Biel,Kloosweg 24,CH,2502,Biel/Bienne,BE
Ambulatorium Thun,Scheibenstrasse 11c,CH,3600,Thun,BE
Ambulatorium Interlaken,Bahnhofstrasse 20,CH,3800,Interlaken,BE
Ambulatorium Burgdorf,Dunantstrasse 7b,CH,3400,Burgdorf,BE
Gemeindepsychiatrisches Zentrum Morgenstrasse Bern,Morgenstrasse 83,CH,3018,Bern,BE
Station Lindenweg Moosseedorf,Lindenweg 4,CH,3302,Moosseedorf,BE
Klinik Althaus und Tagesklinik Grünthalhaus Bern,Bolligenstrasse 111,CH,3000,Bern 60,BE
PZM Psychiatriezentrum Münsingen,Hunzigenallee 1,CH,3110,Münsingen,BE
Spital Uster,Brunnenstrasse 42,CH,8610,Uster,ZH
Spital Männedorf,Asylstrasse 10,CH,8708,Männedorf,ZH
Stadtspital Waid,Tièchestrasse 99,CH,8037,Zürich,ZH
Stadtspital Triemli,Birmensdorferstrasse 497,CH,8063,Zürich,ZH
Zuger Kantonsspital,Landhausstrasse 11,CH,6340,Baar,ZG
Klinik Bethesda,,CH,3233,Tschugg,BE
Suchtbehandlung Frankental,Frankentalerstrasse 55,CH,8049,Zürich,ZH
Clinique La Prairie,Rue du Lac 142,CH,1815,Clarens,VD
clinique belmont,Route de Chêne 26,CH,1207,Genève,GE
Merian Iselin Klinik,Föhrenstrasse 2,CH,4054,Basel,BS
Clinique la Métairie,Avenue de Bois-Bougy 8,CH,1260,Nyon,VD
SMN - Clinica Sant'Anna,Via Sant'Anna 1,CH,6924,Sorengo,TI
Clinica Viarnetto SA,Via Ceresio 34 b,CH,6963,Pregassona,TI
"Klinik Sonnenhalde, Riehen",Gänshaldenweg 22,CH,4125,Riehen,BS
"Klinik Sonnenhalde, Basel",Habsburgerstrasse 15,CH,4055,Basel,BS
"Klinik Sonnenhalde, Reinach",Bruggstrasse 12,CH,4153,Reinach BL,BL
Clienia Littenheid AG,,CH,9573,Littenheid,TG
Hôpital du Pays d'Enhaut,Route de l'Hôpital 17,CH,1660,Château-d'Oex,VD
Privatklinik Hohenegg AG,Hohenegg 1,CH,8706,Meilen,ZH
Ambulantes Zentrum,Sonneggstrasse 45,CH,8006,Zürich,ZH
Hirslanden Klinik Aarau,Schänisweg 1,CH,5001,Aarau,AG
Hirslanden Klinik Linde,Blumenrain 105,CH,2503,Biel/Bienne,BE
Clinique Bois-Cerf,Avenue d'Ouchy 31,CH,1006,Lausanne,VD
Clinique Cecil,Avenue Louis-Ruchonnet 53,CH,1003,Lausanne,VD
Clinique des Grangettes SA,Chemin des Grangettes 7,CH,1224,Chêne-Bougeries,GE
SMN - Privatklinik Obach,Leopoldstrasse 5,CH,4500,Solothurn,SO
Les Rosiers,Rue des Rosiers 29,CH,1450,Ste-Croix,VD
Les Alpes,Avenue des Alpes 18D,CH,1450,Ste-Croix,VD
Ostschweizer Kinderspital,Claudiusstrasse 6,CH,9006,St. Gallen,SG
Romerhuus,Claudiusstrasse 6,CH,9006,St. Gallen,SG
Klinik Barmelweid,,CH,5017,Barmelweid,AG
Ambulatorium Barmelweid c/o Medizinisches Zentrum,Fröhlichstrasse 7,CH,5200,Brugg,AG
Hôpital de Lavaux,Chemin des Colombaires 31,CH,1096,Cully,VD
Klinik Meissenberg AG,Meisenbergstrasse 17,CH,6301,Zug,ZG
Praxis Bad Schwanen,Badstrasse 16,CH,5408,Ennetbaden,AG
Clinica Santa Croce SA,Via al Parco 27,CH,6644,Orselina,TI
Clinica Hildebrand Centro di riabilitazione,Via Crodolo 18,CH,6614,Brissago,TI
Clinique La Colline,Avenue de Beau-Séjour 6,CH,1206,Genève,GE
Kreisspital für das Freiamt,Spitalstrasse 144,CH,5630,Muri AG,AG
Klinik Susenberg,Schreberweg 9,CH,8044,Zürich,ZH
Hirslanden Klinik St. Anna AG,St. Anna-Strasse 32,CH,6006,Luzern,LU
St. Anna im Bahnhof,Zentralstrasse 1,CH,6003,Luzern,LU
Centro Sanitario Valposchiavo Ospedale San Sisto,Via da l'Uspedal 1000,CH,7742,Poschiavo,GR
Privatklinik Meiringen,Willigen,CH,3860,Meiringen,BE
Station Hasliberg,Hohfluh,CH,6083,Hasliberg,BE
Ambulatorium Bern,Bubenbergplatz 10,CH,3011,Bern,BE
Klinik Hirslanden AG,Witellikerstrasse 40,CH,8032,Zürich,ZH
RTH Hirslanden Männedorf,Bergstrasse 4,CH,8708,Männedorf,ZH
Thurklinik AG,Bahnhofstrasse 123a,CH,9244,Niederuzwil,SG
Spital Schwyz,Waldeggstrasse 10,CH,6430,Schwyz,SZ
Geburtshaus Zürcher Oberland  AG,Schürlistrasse 3,CH,8344,Bäretswil,ZH
Paracelsus-Spital Richterswil,Bergstrasse 16,CH,8805,Richterswil,ZH
Clinique Valmont,Route de Valmont,CH,1823,Glion,VD
Geburtshus Storchenäscht,Hendschikerstrasse 12,CH,5504,Othmarsingen,AG
Klinik Hohmad,Hohmadstrasse 1,CH,3600,Thun,BE
Klinik Zugersee,Widenstrasse 55,CH,6317,Oberwil b. Zug,ZG
Ambulante Psychiatrie und Psychotherapie Zug,Rathausstrasse 1,CH,6341,Baar,ZG
Kinder- und Jugendpsychiatrie Zug,Rathausstrasse 1,CH,6341,Baar,ZG
Ambulante Psychiatrie und Psychotherapie Uri,Seedorferstrasse 6,CH,6460,Altdorf UR,UR
Kinder- und Jugendpsychiatrie Uri,Seedorferstrasse 6,CH,6460,Altdorf UR,UR
Ambulante Psychiatrie und Psychotherapie Schwyz,Centralstrasse 5c,CH,6410,Goldau,SZ
Kinder- und Jugendpsychiatrie Schwyz,Bahnhofstrasse 1,CH,6410,Goldau,SZ
Forel Klinik AG stationär,Islikonerstrasse 5,CH,8548,Ellikon an der Thur,ZH
Forel Klinik AG Ambulatorium,Tödistrasse 46,CH,8002,Zürich,ZH
Forel Klinik AG Tagesklinik,Sihlquai 255,CH,8005,Zürich,ZH
Geburtshaus Delphys,Badenerstrasse 177,CH,8003,Zürich,ZH
NCVP Conches,Chemin de la Colombe 15,CH,1231,Conches,GE
Clinique Générale Beaulieu,Chemin de Beau-Soleil 20,CH,1206,Genève,GE
Rheinburg-Klinik AG,Dorf,CH,9428,Walzenhausen,AR
SMN - Clinica Ars Medica,Via Grumo 16,CH,6929,Gravesano,TI
Hirslanden Klinik Birshof,Reinacherstrasse 28,CH,4142,Münchenstein,BL
Clinique Volta SA,Rue Numa-Droz 185,CH,2300,La Chaux-de-Fonds,NE
Klinik Adelheid AG,Höhenweg 71,CH,6314,Unterägeri,ZG
Klinik Gais AG,Gäbrisstrasse 1172,CH,9056,Gais,AR
Klinik Arlesheim AG,Pfeffingerweg 1,CH,4144,Arlesheim,BL
Ita Wegman Ambulatorium,Viaduktstrasse 12,CH,4051,Basel,BS
Andreas Klinik,Rigistrasse 1,CH,6340,Cham,ZG
Privatklinik Aadorf,Fohrenbergstrasse 23,CH,8355,Aadorf,TG
Adus Medica AG,Breitestrasse 11,CH,8157,Dielsdorf,ZH
Cardiocentro Ticino,Via Tesserete 48,CH,6900,Lugano,TI
Hôpital psychiatrique Nant,Route de Nant,CH,1804,Corsier-sur-Vevey,VD
Unité de Réhabilitation Thérapeutique - URT,Avenue de Sully 2,CH,1814,La Tour-de-Peilz,VD
Centre Thérapeutique de Jour,Rue des Vergers 2,CH,1815,Clarens,VD
Unité hospitalière de pédopsychiatrie Enfant & Adolesccent,Route de Nant,CH,1804,Corsier-sur-Vevey,VD
Pédopsychiatrie ambulatoire,Rue des Moulins 11,CH,1800,Vevey,VD
Accueil-Urgence-Liaison  c/o HRC Site Samaritain,Boulevard Paderewski 3,CH,1800,Vevey,VD
Pédopsychiatrie ambulatoire,Grand Chêne 1,CH,1860,Aigle,VD
Pédopsychiatrie ambulatoire,Rte des Chenolettes 4,CH,1660,Château-d'Oex,VD
CTPE et CTJE,Chemin de Chamoyron 29,CH,1806,St-Légier-La Chiésaz,VD
Psychiatrie adultes ambulatoire,Avenue des Alpes 66,CH,1820,Montreux,VD
Psychiatrie adultes ambulatoire,Grand Chêne 1,CH,1860,Aigle,VD
Psychogériatrie ambulatoire,Rue des Moulins 11,CH,1800,Vevey,VD
Psychogériatrie ambulatoire,Grand Chêne 1,CH,1860,Aigle,VD
Unité Ambulatoire Spécialisée,Avenue des Alpes 66,CH,1820,Montreux,VD
Unités Traitements Dépendance,Rue du Molage 8,CH,1860,Aigle,VD
Klinik Im Hasel,Hasel 837,CH,5728,Gontenschwil,AG
Ambulatorium + Tagesklinik Lenzburg,Niederlenzer Kirchweg 1,CH,5600,Lenzburg,AG
Schinznach - Bad,Badstrasse 50,CH,5116,Schinznach Bad,AG
Klinik Sonnenhof,Sonnenhofstrasse 15,CH,9608,Ganterschwil,SG
St. Claraspital,Kleinriehenstrasse 30,CH,4058,Basel,BS
Station Oranienburg-Belvoir,Schänzlistrasse 15,CH,3013,Bern,BE
Universitäts-Kinderspital Zürich,Steinwiesstrasse 75,CH,8032,Zürich,ZH
Rehabilitationszentrum Affoltern,Mühlebergstrasse 104,CH,8910,Affoltern am Albis,ZH
Hôpital de La Tour,Avenue Jacob-Daniel Maillard 3,CH,1217,Meyrin,GE
Hochgebirgsklinik Davos,Herman-Burchard-Strasse 1,CH,7265,Davos Wolfgang,GR
Schulthess Klinik,Lengghalde 2,CH,8008,Zürich,ZH
Schulthess Klinik Zurzach,Badstrasse 44,CH,5330,Bad Zurzach,AG
Schulthess Klinik Kloten,Verenagasse 4,CH,8302,Kloten,ZH
Palliativzentrum Hildegard,St. Alban-Ring 151,CH,4052,Basel,BS
Venenklinik Bellevue Kreuzlingen,Brückenstrasse 9,CH,8280,Kreuzlingen,TG
Hôpital de Morges,Chemin du Crêt 2,CH,1110,Morges,VD
Hôpital de Gilly,Rte du Pavillon 12,CH,1182,Gilly,VD
Hôptial d'Aubonne,Rue de Trévelin 67,CH,1170,Aubonne,VD
Rehaklinik Dussnang AG,Kurhausstrasse 34,CH,8374,Dussnang,TG
Clinique de la Source,Avenue Vinet 30,CH,1004,Lausanne,VD
Zürcher RehaZentrum Davos,Klinikstrasse 6,CH,7272,Davos Clavadel,GR
Zürcher RehaZentrum Wald,Faltigbergstrasse 7,CH,8636,Wald ZH,ZH
Clienia Schlössli AG,Schlösslistrasse 8,CH,8618,Oetwil am See,ZH
Psychiatriezentrum Männedorf,Bergstrasse 34,CH,8708,Männedorf,ZH
Psychiatriezentrum Wetzikon,Bahnhofstrasse 196,CH,8620,Wetzikon,ZH
Psychiatriezentrum Uster,Schachenweg 2,CH,8610,Uster,ZH
Spital Langenthal,St. Urbanstrasse 67,CH,4900,Langenthal,BE
Ambulatorium Niederbipp,Anternstrasse 24,CH,4704,Niederbipp,BE
Ambulatorium Huttwil,Spitalstrasse 51,CH,4950,Huttwil,BE
Ambulatorium Herzogenbuchsee,Stelliweg 24,CH,3360,Herzogenbuchsee,BE
Inselspital,Freiburgstrasse 18,CH,3010,Bern,BE
Klinik Hasliberg,Laueli 89b,CH,6083,Hasliberg Hohfluh,BE
Bethesda Spital,Gellertstrasse 144,CH,4052,Basel,BS
Fachspital Sune-Egge,Konradstrasse 62,CH,8005,Zürich,ZH
Klinik Schönberg,Schönbergstrasse 40,CH,3654,Gunten,BE
Fondation Rive-Neuve,Chemin des Cuarroz 57,CH,1807,Blonay,VD
Klinik SGM,Weissensteinstrasse 30,CH,4900,Langenthal,BE
SGM Ambi Bern,Bubenbergplatz 10,CH,3011,Bern,BE
Universitätsklinik Balgrist,Forchstrasse 340,CH,8008,Zürich,ZH
Klinik Pyramide am See,Bellerivestrasse 34,CH,8008,Zürich,ZH
Schweizer Paraplegiker-Zentrum,Guido A. Zäch Strasse 1,CH,6207,Nottwil,LU
SMN - Clinique de Valère,Rue de Pré-Fleuri 16,CH,1950,Sion,VS
Salina Rehaklinik,Roberstenstrasse 31,CH,4310,Rheinfelden,AG
Physiotherapie Salina B15,Baslerstrasse 15,CH,4310,Rheinfelden,AG
Möhlin,Bachstrasse 10,CH,4313,Möhlin,AG
Stein,Schaffhauserstr. 33,CH,4332,Stein,AG
Physiotherapie Eiken,Rössliweg 15b,CH,5074,Eiken,AG
Frick,Mühlegasse 18,CH,5070,Frick,AG
"Klinik ESTA, Entzug",Gstadstrasse 42,CH,4153,Reinach BL,BL
"Klinik ESTA, Therapie",Gstadstrasse 42,CH,4153,Reinach BL,BL
Station Soteria,Bühlstrasse 19,CH,3012,Bern,BE
Klinik Soteria Lobhaus,Murtenstrasse 46,CH,3008,Bern,BE
Klinik Soteria FETZ,Effingerstrasse 14a,CH,3011,Bern,BE
Klinik Soteria Tageszentrum,Konsumstrasse 16,CH,3007,Bern,BE
"GZF, Spital Rheinfelden",Riburgerstrasse 12,CH,4310,Rheinfelden,AG
"GZF, Spital Laufenburg",Spitalstrasse 10,CH,5080,Laufenburg,AG
"GZF, Fachärztehaus Frick",Mühlegasse 18,CH,5070,Frick,AG
Clinique de Genolier,Route du Muids 3,CH,1272,Genolier,VD
Hirslanden Klinik Belair,Rietstrasse 30,CH,8200,Schaffhausen,SH
Praxiszentrum am Bahnhof,Bleicheplatz 3,CH,8200,Schaffhausen,SH
Schinznach Bad,Badstrasse 55,CH,5116,Schinznach Bad,AG
Zofingen,Mühlethalstrasse 27,CH,4800,Zofingen,AG
Klinik Südhang,Südhang 1,CH,3038,Kirchlindach,BE
Ambul. und Tagesklinik Südhang,Bubenbergplatz 4b,CH,3011,Bern,BE
Ambulatorium Südhang Burgdorf,Kirchbergstrasse 97,CH,3402,Burgdorf,BE
Ambulatorium Südhang Biel,Bahnhofplatz 2,CH,2502,Biel/Bienne,BE
Privat Klinik Wyss,Fellenbergstrasse 32,CH,3053,Münchenbuchsee,BE
Ambulatorium Linde,Dählenweg 6,CH,2503,Biel/Bienne,BE
Ambulatorium und Station Bern (PSOMA),Bremgartenstrasse 117,CH,3001,Bern,BE
Klinik Wysshölzli,Waldrandweg 19,CH,3360,Herzogenbuchsee,BE
HNZB Kreuzlingen,Weinbergstrasse 1,CH,8280,Kreuzlingen,TG
Klinik Siloah,Worbstrasse 316,CH,3073,Gümligen,BE
Pallas Kliniken AG,Louis-Giroud-Strasse 20,CH,4600,Olten,SO
Ergolz-Klinik,Hammerstrasse 35,CH,4410,Liestal,BL
Vista Klinik,Hauptstrasse 55,CH,4102,Binningen,BL
Klinik für Suchttherapie,Zürcherstrasse 52,CH,5432,Neuenhof,AG
Klinik für Suchttherapie,Hutmattenweg 11,CH,5704,Egliswil,AG
Klinik für Suchttherapie,Steinlerweg 12,CH,5702,Niederlenz,AG
Daler,Route de Bertigny 34,CH,1700,Fribourg,FR
Clinique de Carouge,Avenue Cardinal-Mermillod 1,CH,1227,Carouge GE,GE
Hirslanden Klinik Stephanshorn,Brauerstrasse 95,CH,9016,St. Gallen,SG
SMN - Klinik Villa im Park,Bernstrasse 84,CH,4852,Rothrist,AG
Sanatorium Kilchberg AG,Alte Landstrasse 70,CH,8802,Kilchberg ZH,ZH
Zentrum für Psychosomatik,Selnaustrasse 6,CH,8001,Zürich,ZH
Berit Klinik,Vögelinsegg 5,CH,9042,Speicher,AR
Clinique Le Noirmont,Chemin de Roc-Montès 20,CH,2340,Le Noirmont,JU
Heiden,Hasenbühlstrasse 11,CH,9410,Heiden,AR
SMN - Schmerzklinik Basel,Hirschgässlein 11,CH,4051,Basel,BS
Seeschau Kreuzlingen,Bernrainstrasse 17,CH,8280,Kreuzlingen,TG
Reha-Zentrum Valens,Taminaplatz 1,CH,7317,Valens,SG
Reha-Zentrum Walenstadtberg,Chnoblisbüel 1,CH,8881,Walenstadtberg,SG
Ambulante Reha Chur c/o Kantonsspital Graubünden,Loestrasse 99,CH,7000,Chur,GR
Klinik Im Park,Seestrasse 220,CH,8002,Zürich,ZH
Radiologie und Neurorad. Schanze,Talstrasse 65,CH,8001,Zürich,ZH
Clinica Santa Chiara SA,Via Stefano Franscini 4,CH,6600,Locarno,TI
Clinica Dr. Spinedi c/o Clinica Santa Croce,Via al Parco 27,CH,6644,Orselina,TI
Hirslanden Klinik Meggen,Huobmattstrasse 9,CH,6045,Meggen,LU
Klinik für Schlafmedizin,Badstrasse 33,CH,5330,Bad Zurzach,AG
REHAB Basel,Im Burgfelderhof 40,CH,4055,Basel,BS
Rehaklinik Zihlschlacht AG,Hauptstrasse 2-4,CH,8588,Zihlschlacht,TG
KSK Diessenhofen,St. Katharinental,CH,8253,Diessenhofen,TG
Psychiatr. Klinik Münsterlingen,Seeblickstrasse 3,CH,8596,Münsterlingen,TG
Spital Linth,Gasterstrasse 25,CH,8730,Uznach,SG
Kantonsspital Obwalden,Brünigstrasse 181,CH,6060,Sarnen,OW
Kantonsspital Nidwalden,Ennetmooserstrasse 19,CH,6370,Stans,NW
Kantonales Spital Appenzell,Sonnhalde 2,CH,9050,Appenzell,AI
UniversitätsSpital Zürich,Rämistrasse 100,CH,8091,Zürich,ZH
Wagi-Areal Schlieren,Wagistrasse 14,CH,8952,Schlieren,ZH
Urologie Meilen,Obere Kirchgasse 18,CH,8706,Meilen,ZH
Kantonsspital Winterthur,Brauerstrasse 15,CH,8400,Winterthur,ZH
Fachärztezentrum Glatt,Neue Winterthurerstrasse 99,CH,8304,Wallisellen,ZH
KSW-Radiologie WIN4,Grüzefeldstrasse 32,CH,8400,Winterthur,ZH
ipw Winterthur,Wieshofstrasse 102,CH,8408,Winterthur,ZH
ipw Embrach,Römerweg 51,CH,8424,Embrach,ZH
ipw Bülach,Gartematt 6,CH,8180,Bülach,ZH
ipw Dielsdorf,Brunnwiesenstrasse 8,CH,8157,Dielsdorf,ZH
ipw ISW,Tösstalstrasse 19 und 53,CH,8400,Winterthur,ZH
ipw KIZ_Wi,Bleichestrasse 9,CH,8400,Winterthur,ZH
ipw GAT_Wi,Salstrasse 48,CH,8400,Winterthur,ZH
ipw GEZ_Wi,Rudolfstrasse 19,CH,8400,Winterthur,ZH
ipw BSJ_Wi,Trollstrasse 18,CH,8400,Winterthur,ZH
ipw CM_Wi,Schlachthofstrasse 19a,CH,8406,Winterthur,ZH
ipw PP_Wi,Haldenstrasse 63,CH,8400,Winterthur,ZH
ipw AFT_Wi,Technikumstrasse 81,CH,8400,Winterthur,ZH
ipw Glattbrugg,Feldeggstrasse 5,CH,8152,Glattbrugg,ZH
Kantonsspital St. Gallen,Rorschacher Strasse 95,CH,9007,St. Gallen,SG
Spital Rorschach,Heidener Strasse 11,CH,9400,Rorschach,SG
Spital Flawil,Krankenhausstrasse 23,CH,9230,Flawil,SG
Klinik St. Pirminsberg,Klosterweg,CH,7312,Pfäfers,SG
PZ Rheintal,Balgacherstrasse 202,CH,9435,Heerbrugg,SG
PZ Werdenberg-Sarganserland,Hauptstrasse 27,CH,9477,Trübbach,SG
PZ Linthgebiet Standort Uznach,Zürcherstrasse 1,CH,8730,Uznach,SG
PZ Linthgebiet Standort Rapperswil,Alpenstrasse 2,CH,8640,Rapperswil,SG
Psychiatrische Klinik Wil,Zürcherstrasse 30,CH,9501,Wil SG,SG
PZ St. Gallen,Teufenerstrasse 26,CH,9001,St.Gallen,SG
PZ Rorschach,Mariabergstrasse 19,CH,9401,Rorschach,SG
PZ Wattwil,Hembergerstrasse 22,CH,9630,Wattwil,SG
PUK Zürich Lenggstrasse,Lenggstrasse 31,CH,8032,Zürich,ZH
ZSP Militärstrasse,Militärstrasse 8,CH,8004,Zürich,ZH
ZSP Ambi / TZ Heliostrasse,Heliosstrasse 32,CH,8032,Zürich,ZH
KAP Hegibach,Minervastrasse 145,CH,8032,Zürich,ZH
ZAE Ambi / TZ Selnaustrasse,Selnaustrasse 9,CH,8001,Zürich,ZH
ZSP Nachtklinik Klusstrasse,Klusstrasse 44,CH,8032,Zürich,ZH
ZSP Ambi Limmattal,Zürcherstrasse 49,CH,8953,Dietikon,ZH
ZSP Ambi Oerlikon,Hofwiesenstrasse 318,CH,8050,Zürich-Oerlikon,ZH
PUK Rheinau,Alleestrasse,CH,8462,Rheinau,ZH
ZKJF Zürich,Neptunstr. 60,CH,8032,Zürich,ZH
KAP Schlieren,Wagistrasse 23,CH,8952,Schlieren,ZH
KJPP Zürich,Neumünsterallee 3,CH,8032,Zürich,ZH
ZKP Brüschhalde,Bergstrasse 120,CH,8708,Männedorf,ZH
ZAS Winterthur,Albanistrasse 24,CH,8400,Winterthur,ZH
ZAS Bülach,Bahnhofstrasse 39,CH,8180,Bülach,ZH
ZAS Dietikon,Löwenstrasse 15,CH,8953,Dietikon,ZH
ZAS Horgen,Bahnhofstrasse 6,CH,8810,Horgen,ZH
ZAS Uster,Gerberstrasse 3,CH,8610,Uster,ZH
ZAS Wetzikon,Guyer-Zeller-Strasse 21,CH,8620,Wetzikon,ZH
ZAS Zürich Nord,Thurgauerstrasse 39,CH,8050,Zürich,ZH
Centre Hospitalier Universitaire Vaudois,Rue du Bugnon 21,CH,1011,Lausanne,VD
Psychiatrie Nord CPNVD,Avenue des Sports 12B,CH,1400,Yverdon-les-Bains,VD
Psychiatrie Ouest Hôpital de Prangins,Chemin Oscar Forel 3,CH,1197,Prangins,VD
Spital Altstätten,F.-Marolani-Strasse 6,CH,9450,Altstätten,SG
Spital Grabs,Spitalstrasse 44,CH,9472,Grabs,SG
Spital Walenstadt,Spitalstrasse 5,CH,8880,Walenstadt,SG
Rebstein,Alte Landstrasse 106,CH,9445,Rebstein,SG
Spital Wil,Fürstenlandstrasse 32,CH,9500,Wil SG,SG
Spital Wattwil,Steig,CH,9630,Wattwil,SG
Spital Affoltern,Sonnenbergstrasse 27,CH,8910,Affoltern am Albis,ZH
Regionalspital Surselva,Spitalstrasse 6,CH,7130,Ilanz,GR
Spital Oberengadin,Via Nouva 3,CH,7503,Samedan,GR
Spital Bülach,Spitalstrasse 24,CH,8180,Bülach,ZH
Spital Burgdorf,Oberburgstrasse 54,CH,3400,Burgdorf,BE
Spital Langnau,Dorfbergstrasse 10,CH,3550,Langnau,BE
Spitalzentrum Biel,Vogelsang 84,CH,2502,Biel/Bienne,BE
Reha Chrischona,Hohe Strasse 30,CH,4126,Bettingen,BS
Spital Limmattal,Urdorferstrasse 100,CH,8952,Schlieren,ZH
Geriatrische Klinik St.Gallen,Rorschacher Strasse 94,CH,9000,St. Gallen,SG
Spital Thusis,Alte Strasse 31,CH,7430,Thusis,GR
Bellikon,Mutschellenstrasse 2,CH,5454,Bellikon,AG
Clinica psichiatrica cantonale,Via Agostino Maspoli,CH,6850,Mendrisio,TI
Spital Lachen,Oberdorfstrasse 41,CH,8853,Lachen SZ,SZ
Leukerbad Clinic,Willy-Spühlerstrasse 2,CH,3954,Leukerbad,VS
RehaClinic Bad Zurzach,Quellenstrasse 34,CH,5330,Bad Zurzach,AG
Akutnahe Rehabilitation,Im Ergel 1,CH,5404,Baden,AG
Ambulatorium Brugg,Fröhlichstrasse 5,CH,5200,Brugg,AG
Hôpital ophtalmique Jules-Gonin,Avenue de France 15,CH,1004,Lausanne,VD
Spital Thun,Krankenhausstrasse 12,CH,3600,Thun,BE
Spital Zweisimmen,Karl Haueter-Strasse 21,CH,3770,Zweisimmen,BE
Ambulatorium Münsingen,Dorfmattweg 8a,CH,3110,Münsingen,BE
Ambulatorium und Tagesklinik Steffisburg,Aumattweg 66,CH,3612,Steffisburg,BE
Asana Gruppe Spital Leuggern,Kommendeweg 12,CH,5316,Leuggern,AG
Asana Gruppe Spital Menziken,Spitalstrasse 1,CH,5737,Menziken,AG
Klinik Heiligenschwendi,Schwendi 303,CH,3625,Heiligenschwendi,BE
Spital Zollikerberg,Trichtenhauserstrasse 20,CH,8125,Zollikerberg,ZH
Frauen-Permanence Zürich,Goethestrasse 24,CH,8001,Zürich,ZH
Klinik Tiefenbrunnen,Dammstrasse 29,CH,8702,Zollikon,ZH
Clinique Miremont,Avenue Rollier 21,CH,1854,Leysin,VD
Klinik Selhofen,Emmentalstrasse 8,CH,3400,Burgdorf,BE
Ambulatorium Selhofen Bern,Bubenbergplatz 4b,CH,3011,Bern,BE
Ambulatorium Selhofen Biel,Bahnhofplatz 2,CH,2502,Biel,BE
Hospiz im Park,Stollenrain 12,CH,4144,Arlesheim,BL
Praxisklinik Rennbahn,Kriegackerstrasse 100,CH,4132,Muttenz,BL
Kantonsspital Aarau AG,Tellstrasse 15,CH,5001,Aarau,AG
Psychiatrische Dienste Aargau AG,Zürcherstrasse 241,CH,5210,Windisch,AG
Tageszentrum Aarau,Landhausweg 22,CH,5000,Aarau,AG
Ambulatorium Aarau,Bleichemattstrasse 16,CH,5000,Aarau,AG
Ambulatorium Wohlen,Bahnhofstrasse 6,CH,5610,Wohlen,AG
Tagesklinik Aarau,Bleichemattstrasse 9,CH,5000,Aarau,AG
TK & TZ Baden,St. Ursusstrasse 3,CH,5400,Baden,AG
Tageszentrum Wohlen,Bahnhofweg 17,CH,5610,Wohlen,AG
Ambulatorium Baden,Haselstrasse 1,CH,5400,Baden,AG
Ambulatorium Rheinfelden,Bahnhofstrasse 21,CH,4310,Rheinfelden,AG
Memory Clinic,Schanzweg 7,CH,5000,Aarau,AG
Amb. für Kinder- u. Jugendpsych. Freiamt,Zentralstrasse 20,CH,5610,Wohlen,AG
Memory Clinic,Husmatt 1,CH,5405,Baden-Dättwil,AG
Im Ergel 1,Im Ergel 1,CH,5404,Baden,AG
Med. Zentrum Brugg,Fröhlichstrasse 7,CH,5200,Brugg,AG
"Spital Muri, Dialyse",Spitalstrasse 144,CH,5630,Muri AG,AG
Ärztezentrum Limmatfeld,Heimstrasse 1,CH,8953,Dietikon,ZH
Spital Einsiedeln,Spitalstrasse 28,CH,8840,Einsiedeln,SZ
reha andeer ag,Veia Granda,CH,7440,Andeer,GR
Klinik Gut St. Moritz,Via Arona 34,CH,7500,St. Moritz,GR
Klinik Gut Fläsch,Steigstrasse 12,CH,7306,Fläsch,GR
Clinica Luganese Moncucco SA Sede San Rocco,Via Moncucco 10,CH,6903,Lugano,TI
Clinica Luganese Moncucco SA Sede Moncucco,Via Moncucco 10,CH,6903,Lugano,TI
Luzerner Höhenklinik Montana,Route de l'Astoria 2,CH,3963,Crans-Montana,VS
Kantonsspital Uri,Spitalstrasse 1,CH,6460,Altdorf UR,UR
Clinique de la Plaine,Rue Charles-Humbert 5,CH,1205,Genève,GE
Spital Zofingen AG,Mühlethalstrasse 27,CH,4800,Zofingen,AG
Privatklinik Lindberg,Schickstrasse 11,CH,8400,Winterthur,ZH
RFSM,,CH,1633,Marsens,FR
Kantonsspital Glarus Akutsomatik,Burgstrasse 99,CH,8750,Glarus,GL
Kantonsspital Glarus Psychiatrie,Burgstrasse 99,CH,8750,Glarus,GL
Psychiatrisches Zentrum AR,Krombach 3,CH,9101,Herisau,AR
Felix Platter-Spital,Burgfelderstrasse 101,CH,4055,Basel,BS
Universitätsspital,Hebelstrasse 32,CH,4056,Basel,BS
Klinik Psychiatrie/Psychotherap.,Bienentalstrasse 7,CH,4410,Liestal,BL
KJP Poliklinik Bruderholz,,CH,4101,Bruderholz,BL
KJP Poliklinik Liestal,Goldbrunnenstrasse 14,CH,4410,Liestal,BL
KJP Poliklinik Laufen,Im Grossen Grien 6,CH,4242,Laufen,BL
KJP Psychotherapiestation,Goldbrunnenstrasse 14,CH,4410,Liestal,BL
Ambulatorium Bruderholz,,CH,4101,Bruderholz,BL
Ambulatorium/Tageskl. Liestal,Spitalstrasse 1,CH,4410,Liestal,BL
Ambulatorium/Tageskl. Münchenst.,Emil Frey-Strasse 55,CH,4142,Münchenstein,BL
ZfA Ambulatorium Liestal,Wiedenhubstrasse 55,CH,4410,Liestal,BL
ZfA Ambulatorium Reinach,Baselstrasse 1,CH,4153,Reinach BL,BL
ZfA Ambulatorium Münchenstein,Barcelona-Strasse 15,CH,4142,Münchenstein,BL
Geissbergstrasse 81,Geissbergstrasse 81,CH,8208,Schaffhausen,SH
Nordstrasse 111,Nordstrasse 111,CH,8200,Schaffhausen,SH
Promenadenstrasse 21,Promenadenstrasse 21,CH,8200,Schaffhausen,SH
Spital Davos,Promenade 4,CH,7270,Davos Platz,GR
Klinik Schloss Mammern,Dr. A.O. Fleisch-Strasse 3,CH,8265,Mammern,TG
Rheinfelden,Salinenstrasse 98,CH,4310,Rheinfelden,AG
Clinique de Montchoisi,Chemin des Allinges 10,CH,1006,Lausanne,VD
Universitätsspital Basel,Hebelstrasse 32,CH,4056,Basel,BS
Biotonus,Rue Bon-Port 27,CH,1820,Montreux,VD
Center da Sanda Val Müstair,Sielva,CH,7536,Sta. Maria V. M.,GR
Klinik Schützen,Bahnhofstrasse 19,CH,4310,Rheinfelden,AG
Ambulatorium Rheinfelden,Stadtweg 4,CH,4310,Rheinfelden,AG
Ambulatorium Aarau,Schanzweg 7,CH,5001,Aarau,AG
Ospidal d'Engiadina Bassa,Via da l'Ospidal 280,CH,7550,Scuol,GR
Modellstation SOMOSA,Zum Park 20,CH,8404,Winterthur,ZH
Reha Seewis,Schlossstrasse 1,CH,7212,Seewis Dorf,GR
UPK-Campus (EPK/FPK),Wilhelm-Klein-Strasse 27,CH,4056,Basel,BS
Psychotherap. Tagesklinik (PTK),Spalenberg 65,CH,4051,Basel,BS
Jugendpsychiatr. Abteilung (JPA),Röschenzerstrasse 5/7,CH,4053,Basel,BS
Gesundheitszentrum Psychiatrie Kornhausgasse,Kornhausgasse 7,CH,4051,Basel,BS
Kinderpsychiatr. Abteil. (KPA),Alemannengasse 60,CH,4058,Basel,BS
DTK f. Klein-/Kindergartenkinder,Chrischonastrasse 38,CH,4058,Basel,BS
Kriseninterventionsstation (KIS),Schanzenstrasse 55,CH,4031,Basel,BS
Janus,Spitalstrasse 2,CH,4056,Basel,BS
KJP Jugendstation,Waisenhausstrasse 1,CH,7000,Chur,GR
Clinica Fondazione Varini,Via Consiglio Mezzano 38,CH,6644,Orselina,TI
GZO Spital Wetzikon,Spitalstrasse 66,CH,8620,Wetzikon ZH,ZH
Privatklinik Bethanien,Toblerstrasse 51,CH,8044,Zürich,ZH
Klinik Montana,Imp. Palace Bellevue 1,CH,3963,Crans-Montana,VS
Clinique la Lignière,La Lignière 5,CH,1196,Gland,VD
Ospedale Malcantonese Fondazione Giuseppe Rossi,,CH,6980,Castelrotto,TI
Clinique romande de réadaptation,Avenue du Grand-Champsec 90,CH,1950,Sion,VS
See-Spital Horgen,Asylstrasse 19,CH,8810,Horgen,ZH
See-Spital Kilchberg,Grütstrasse 60,CH,8802,Kilchberg,ZH
Hôpital d'Yverdon-les-Bains,Rue d'Entremonts 11,CH,1400,Yverdon-les-Bains,VD
Hôpital de Saint-Loup,Route de St-Loup 13,CH,1318,Pompaples,VD
Hôpital de Chamblon,Route de l'Hôpital 3,CH,1436,Chamblon,VD
Hôpital d'Orbe,Chemin de la Magnenette 2,CH,1350,Orbe,VD
Hôpital de La Vallée,Rue de l'Hôpital 3,CH,1347,Le Sentier,VD
Hof Weissbad AG,Im Park 1,CH,9057,Weissbad,AI
Uroviva Klinik AG,Zürichstrasse 5,CH,8180,Bülach,ZH
Spital Tiefenau,Tiefenaustrasse 112,CH,3004,Bern,BE
Spital Aarberg,Lyssstrasse 31,CH,3270,Aarberg,BE
Spital Belp,Seftigenstrasse 89/91,CH,3123,Belp,BE
Spital Münsingen,Krankenhausweg 18/20,CH,3110,Münsingen,BE
Spital Riggisberg,Eyweg 2,CH,3132,Riggisberg,BE
Klinik St. Urban,Schafmattstrasse 1,CH,4915,St. Urban,LU
Klinik Luzern,Areal Kantonsspital 11 Spitalstr,CH,6000,Luzern 16,LU
Jugendpsychiatrische Th.station,Fenkernstrasse 15,CH,6010,Kriens,LU
Kinderpsychiatrische Th.station,Fenkernstrasse 15,CH,6010,Kriens,LU
Tagesklinik Luzern,Areal Kantonsspital 11 Spitalstr,CH,6000,Luzern 16,LU
Drop-in,Bruchstrasse 29a,CH,6007,Luzern,LU
Ambulatorium Luzern,Löwengraben 20,CH,6004,Luzern,LU
Klinik Sarnen  (Station A),Brünigstrasse 183,CH,6060,Sarnen,OW
KJPD-Ambulatorium Luzern,Kantonsspital 13,CH,6000,Luzern 16,LU
Forensischer Dienst,Hobacherweg 2,CH,6010,Kriens,LU
GiA Luzern,Voltastrasse 42,CH,6005,Luzern,LU
Ambulatorium Wolhusen,Gütsch 1 Josefshaus,CH,6110,Wolhusen,LU
Tagesklinik Sarnen (Station I),Brünigstrasse 183,CH,6060,Sarnen,OW
KJPD-Ambulatorium Wolhusen,Gütsch 1 Josefshaus,CH,6110,Wolhusen,LU
Tagesklinik Sursee,Surentalstrasse 10,CH,6210,Sursee,LU
Ambulatorium Sursee,Surentalstrasse 10,CH,6210,Sursee,LU
KJPD-Ambulatorium Sursee,Surentalstrasse 10,CH,6210,Sursee,LU
GiA Sursee,Surentalstrasse 10,CH,6210,Sursee,LU
Memory Clinic Zentralschweiz,Surentalstrasse 10,CH,6210,Sursee,LU
Ambulatorium Hochdorf,Brauiplatz 8,CH,6280,Hochdorf,LU
KJPD-Ambulatorium Hochdorf,Brauiplatz 8,CH,6280,Hochdorf,LU
Ambulatorium Sarnen,Brünigstrasse 183,CH,6060,Sarnen,OW
KJPD-Ambulatorium Sarnen,Brünigstrasse 183,CH,6060,Sarnen,OW
LUKS Luzern,Spitalstrasse,CH,6000,Luzern 16,LU
LUKS Sursee,Spitalstrasse 16A,CH,6210,Sursee,LU
LUKS Wolhusen,Spitalstrasse,CH,6110,Wolhusen,LU
Hebammenpraxis am Grendel,Grendel 15,CH,6004,Luzern,LU
Augenpraxis Baar,Bahnhofstrasse 14,CH,6340,Baar,ZG
Radio-Onkologie am Zuger Kantonsspital,Landhausstrasse 11,CH,6340,Baar,ZG
PDGR Klinik Waldhaus,Loestrasse 220,CH,7000,Chur,GR
PDGR Klinik Beverin,,CH,7408,Cazis,GR
PDGR Prättigau / Davos,,CH,7270,Davos Platz,GR
PDGR Surselva,,CH,7130,Ilanz,GR
PDGR Engadin / Südtäler,,CH,7500,St. Moritz,GR
PDGR Tagesklinik Glarus,,CH,8750,Glarus,GL
Geburtshaus Luna Bern,Oberdorfstrasse 56,CH,3072,Ostermundigen,BE
Geburtshaus Luna Bern Ambulatorium,Elfenaustrasse 8,CH,2502,Biel/Bienne,BE
Limmatklinik AG,Hardturmstrasse 133,CH,8005,Zürich,ZH
Ita Wegman Geburtshaus,Pfeffingerweg 1,CH,4144,Arlesheim,BL
Geburtshaus Tagmond,Hauptstrasse 26,CH,4133,Pratteln,BL
Geburtshaus ambra GmbH,Unterdorfstrasse 25,CH,4443,Wittinsburg,BL
Le Petit Prince,Route du Petit-Moncor 1d,CH,1752,Villars-sur-Glâne,FR
Site de Delémont,Fbg des Capucins 30,CH,2800,Delémont,JU
Site de Porrentruy,Chemin de l'Hôpital 9a,CH,2900,Porrentruy,JU
Site de Saignelégier,Rue de l'Hôpital 11,CH,2350,Saignelégier,JU
Résidence La Promenade,Rue de l'Hôpital 58,CH,2800,Delémont,JU
Maison de naissance Les Cigognes,Route Principale 21,CH,2824,Vicques,JU
Terra Alta,Schellenrain 20,CH,6208,Oberkirch LU,LU
La Chaux-de-Fonds,Chasseral 20,CH,2300,La Chaux-de-Fonds,NE
Pourtalès,Maladière 45,CH,2002,Neuchâtel,NE
Val-de-Travers,Rue de l'Hôpital 4,CH,2107,Couvet,NE
Val-de-Ruz,Route de Landeyeux,CH,2046,Fontaines,NE
Le Locle,Bellevue 42,CH,2400,Le Locle,NE
Chrysalide,Rue de la Paix 99,CH,2300,La Chaux-de-Fonds,NE
CNP Site de Perreux,Site de Perreux,CH,2017,Boudry,NE
CNP Site de Préfargier,Site de Préfargier,CH,2074,Marin-Epagnier,NE
CNPea-ad-âa - consultation ambulatoire,Rue de la Jardinière 157a,CH,2300,La Chaux-de-Fonds,NE
CNP ea - consultation ambulatoire,Vieux-Châtel 20,CH,2000,Neuchâtel,NE
CNPea-ad - consultation ambulatoire,Rue de l'Hôpital 4,CH,2108,Couvet,NE
CNP-CUP,Maladières 45,CH,2000,Neuchâtel,NE
CNP ad-âa - consultation ambulatoire et HdJ âa,Vieux-Châtel 18,CH,2000,Neuchâtel,NE
Geburtshaus Stans,Rosenweg 3,CH,6370,Stans,NW
Bürgerspital Solothurn,Schöngrünstrasse 36a,CH,4500,Solothurn,SO
Kantonsspital Olten,Baslerstrasse 150,CH,4600,Olten,SO
Spital Dornach,Spitalweg 11,CH,4143,Dornach,SO
Psychiatrische Dienste,Weissensteinstrasse 102,CH,4503,Solothurn,SO
Solothurner Spitäler AG,Schöngrünstrasse 36a,CH,4500,Solothurn,SO
Ospedale Regionale di Lugano,Via Tesserete 46,CH,6900,Lugano,TI
Ospedale Regionale San Giovanni,Via Ospedale 12,CH,6500,Bellinzona,TI
Ospedale Regionale La Carità,Via dell'Ospedale 1,CH,6600,Locarno,TI
Ospedale Regionale Beata Vergine,via Alfonso Turconi 23,CH,6850,Mendrisio,TI
Ospedale Regionale Faido,Via Ospedale 32,CH,6760,Faido,TI
Ospedale Regionale Acquarossa,Corzoneso Piano,CH,6716,Acquarossa,TI
Clinica Riabilitazione EOC Sede di Novaggio,,CH,6986,Novaggio,TI
Direzione Generale EOC,Viale Officina 3,CH,6500,Bellinzona,TI
Centrale Servizi Industriali,via Chiasso 22,CH,6710,Biasca,TI
Standort Brig,Ueberlandstrasse,CH,3900,Brig,VS
Standort Visp,Pflanzettastrasse 8,CH,3930,Visp,VS
Brig - Verwaltung SZO,Spitalstrasse 7,CH,3900,Brig,VS
Clinique St-Amé,Vers Saint-Amé 10,CH,1890,St-Maurice,VS
Hôpital de Malévoz - IPVR,Route de Morgins 10,CH,1870,Monthey,VS
Hôpital de Sierre,Rue St-Charles 14,CH,3960,Sierre,VS
Centre Valaisan de Pneumologie,Route de la Moubra 87,CH,3963,Crans-Montana,VS
Hôpital de Sion Champsec,Av. du Grand-Champsec 80,CH,1951,Sion,VS
Hôpital de Martigny,Av. de la Fusion 27 Case postale,CH,1920,Martigny,VS
Sion - Admin.CHCVs,Av. du Grand-Champsec 80,CH,1951,Sion,VS
Martigny - admin.CHCVs,Av. de la Fusion 27 Case postale,CH,1920,Martigny,VS
HFR Fribourg - HC,Chemin des Pensionnats 2,CH,1700,Fribourg,FR
HFR Billens,Route de l'Hôpital 1,CH,1681,Billens,FR
HFR Meyriez-Murten,Spitalweg 36,CH,3280,Murten,FR
HFR Riaz,Rue de l'Hôpital 39,CH,1632,Riaz,FR
HFR Tafers,Maggenberg 1,CH,1712,Tafers,FR
HUG - Soins aigus,Rue Gabrielle-Perret-Gentil 4,CH,1205,Genève,GE
HUG - Soins psychiatriques,Rue Gabrielle-Perret-Gentil 4,CH,1205,Genève,GE
HUG - Soins subaigus et continus,Rue Gabrielle-Perret-Gentil 4,CH,1205,Genève,GE
HUG - Clinique de Crans-Montana Soins subaigus et continus,Impasse Clairmont 2,CH,3963,Crans-Montana,VS
HUG - Clinique de Joli-Mont - Soins subaigus et continus,Av. Jean-Trembley 45,CH,1209,Genève,GE
Therapiezentrum Meggen,Rütliweg 1,CH,6045,Meggen,LU
Klinik Lengg AG,Bleulerstrasse 60,CH,8008,Zürich,ZH
Clinique Bois-Bougy,Avenue de Bois-Bougy 5,CH,1260,Nyon,VD
RehaClinic Zollikerberg,Trichtenhauserstrasse 20,CH,8125,Zollikerberg,ZH
Maison de Naissance Tilia Sàrl,Chemin des Valangines 9,CH,2000,Neuchâtel,NE
Rosenklinik AG,Güterstrasse 21/23,CH,8640,Rapperswil-Jona,SG
RehaClinic Kilchberg,Grütstrasse 60,CH,8802,Kilchberg ZH,ZH
UKBB,Spitalstrasse 33,CH,4056,Basel,BS
Spital Herisau,Krombach 3,CH,9410,Herisau,AR
Spital Heiden,Werdstrasse 1 A,CH,9410,Heiden,AR
Braunwald,Niederschlachtstrasse 12,CH,8784,Braunwald,GL
RehaClinic Glarus,Burgstrasse 99,CH,8750,Glarus,GL
Liestal,Mühlemattstrasse 26,CH,4410,Liestal,BL
Bruderholz,,CH,4101,Bruderholz,BL
Laufen,Lochbruggstrasse 39,CH,4242,Laufen,BL
Maison de naissance La Roseraie,Chemin du Châtelet 3,CH,1205,Genève,GE
Klinik Beau-Site,Schänzlihalde 11,CH,3013,Bern,BE
Salem-Spital,Schänzlistrasse 39,CH,3013,Bern,BE
Klinik Permanence,Bümplizstrasse 83,CH,3018,Bern,BE
Praxiszentrum am Bahnhof,Parkterrasse 10,CH,3012,Bern,BE
Zentrale Bereiche,Nordring 4,CH,3013,Bern,BE
Clinica Holistica Susch,Praz,CH,7542,Susch,GR
CIC,Rue du Lac 92,CH,1815,Clarens,VD
Lindenhofspital,Bremgartenstrasse 117,CH,3012,Bern,BE
Sonnenhofspital,Buchserstrasse 30,CH,3006,Bern,BE
Engeriedspital,Riedweg 15,CH,3012,Bern,BE
Verwaltungsstandort,Muristrasse 12,CH,3006,Bern,BE
Clinique CIC Valais SA,route du Léman 29,CH,1907,Saxon,VS
Clinique de Maisonneuve SA,Avenue de Châtelaine 60-62,CH,1219,Châtelaine,GE
Eulachklinik AG,Brunngasse 6,CH,8400,Winterthur,ZH
Hôpital de la Providence,Faubourg de l'Hôpital 81,CH,2000,Neuchâtel,NE
Clinique Montbrillant,Rue de la Montagne 1,CH,2300,La Chaux-de-Fonds,NE
La Chaux-de-Fonds,Chasseral 20,CH,2300,La Chaux-de-Fonds,NE
Cereneo Schweiz AG,Seestrasse 18,CH,6354,Vitznau,LU
Geburtshaus Basel,Schweizergasse 8,CH,4054,Basel,BS
Clinic Bad Ragaz,,CH,7310,Bad Ragaz,SG
Clinique du Grand-Salève Sàrl,Avenue du Grand-Salève 2,CH,1255,Veyrier,GE
Geburtshaus Maternité Alpine,Eggetlistrasse 5a,CH,3770,Zweisimmen,BE
RehaClinic Sonnmatt Luzern,Hemschlenstrasse,CH,6006,Luzern,LU
Bürgenstock Hotels AG Waldhotel Health & Medical Excellence Rehabilitationsklinik,Bürgenstock 30,CH,6363,Obbürgen,NW
